COSMOS 2251 DEB         
1 35887U 93036AUA 17340.57724446  .00000768  00000-0  34784-3 0  9996
2 35887  73.9927  53.5126 0113158 153.4645 207.2355 14.20244549227795
